*******************************************************************************
 Revised: Jan 23, 2020              Phoebe / (Saturn)                       609
                          http://ssd.jpl.nasa.gov/?sat_phys_par
                            http://ssd.jpl.nasa.gov/?sat_elem

 SATELLITE PHYSICAL PROPERTIES:
  Radius (km)            = 106.6    +- 1.1    Density (g/cm^3)=  1.633 +- 0.049
  Mass (10^19 kg)        =   0.8289           Geometric Albedo=  0.081 +- 0.002
  GM (km^3/s^2)          =   0.5581 +- 0.0006 V(1,0)          = +1.5 (.7-2.5) 

 SATELLITE ORBITAL DATA (mean values with respect to local Laplace plane):
  Semi-major axis, a (km)= 12947.78(10^3)     Orbital period    = 550.31 d
  Eccentricity, e        =     0.1635         Rotational period = Synchronous
  Inclination, i  (deg)  =   175.986
*******************************************************************************
 
 
*******************************************************************************
Ephemeris / WWW_USER Fri Jun 19 18:25:09 2020 Pasadena, USA      / Horizons
*******************************************************************************
Target body name: Phoebe (609)                    {source: sat427l_merged_DE438}
Center body name: Solar System Barycenter (0)     {source: DE431mx}
Center-site name: BODY CENTER
*******************************************************************************
Start time      : A.D. 1969-Jun-28 00:00:00.0000 TDB
Stop  time      : A.D. 2071-May-04 00:00:00.0000 TDB
Step-size       : 7200 minutes
*******************************************************************************
Center geodetic : 0.00000000,0.00000000,0.0000000 {E-lon(deg),Lat(deg),Alt(km)}
Center cylindric: 0.00000000,0.00000000,0.0000000 {E-lon(deg),Dxy(km),Dz(km)}
Center radii    : (undefined)                                                  
Output units    : AU-D
Output type     : GEOMETRIC cartesian states
Output format   : 2 (position and velocity)
Reference frame : Ecliptic of J2000.0
*******************************************************************************
            JDTDB,            Calendar Date (TDB),        delta-T,                      X,                      Y,                      Z,                     VX,                     VY,                     VZ,
******************************************************************************************************************************************************************************************************************
$$SOE
2471375.500000000, A.D. 2054-Apr-18 00:00:00.0000,      69.185617,  9.332835138162213E+00, -2.030737576914490E+00, -3.298414374955823E-01,  7.119748234906196E-04,  6.511721627103376E-03, -1.307859590013485E-04,
2471380.500000000, A.D. 2054-Apr-23 00:00:00.0000,      69.185576,  9.336521997749736E+00, -1.998174882652829E+00, -3.305149027016961E-01,  7.625076107547615E-04,  6.512612660243026E-03, -1.385521512549709E-04,
2471385.500000000, A.D. 2054-Apr-28 00:00:00.0000,      69.185523,  9.340457385021587E+00, -1.965618640929546E+00, -3.312264568191799E-01,  8.113439544667852E-04,  6.509189419220176E-03, -1.460170859178713E-04,
2471390.500000000, A.D. 2054-May-03 00:00:00.0000,      69.185461,  9.344632221620575E+00, -1.933089684273561E+00, -3.319745323203637E-01,  8.582525238613602E-04,  6.501748443631651E-03, -1.531573823107430E-04,
2471395.500000000, A.D. 2054-May-08 00:00:00.0000,      69.185390,  9.349036379650400E+00, -1.900607357219432E+00, -3.327574589916422E-01,  9.030439704603772E-04,  6.490587056093096E-03, -1.599549110126356E-04,
2471400.500000000, A.D. 2054-May-13 00:00:00.0000,      69.185309,  9.353658878300566E+00, -1.868189523480432E+00, -3.335734880925434E-01,  9.455665135760877E-04,  6.475999486591200E-03, -1.663964604588333E-04,
2471405.500000000, A.D. 2054-May-18 00:00:00.0000,      69.185217,  9.358488063730622E+00, -1.835852593460523E+00, -3.344208143849439E-01,  9.857017156897731E-04,  6.458272757116745E-03, -1.724726505295297E-04,
2471410.500000000, A.D. 2054-May-23 00:00:00.0000,      69.185114,  9.363511769558169E+00, -1.803611566424246E+00, -3.352975961685097E-01,  1.023362223955034E-03,  6.437683481953476E-03, -1.781779368946802E-04,
2471415.500000000, A.D. 2054-May-28 00:00:00.0000,      69.185004,  9.368717458743806E+00, -1.771480087418975E+00, -3.362019716799023E-01,  1.058487042650005E-03,  6.414496425152885E-03, -1.835099863608669E-04,
2471420.500000000, A.D. 2054-Jun-02 00:00:00.0000,      69.184889,  9.374092348279854E+00, -1.739470512687457E+00, -3.371320735711854E-01,  1.091037797340466E-03,  6.388962548706176E-03, -1.884687738636893E-04,
2471425.500000000, A.D. 2054-Jun-07 00:00:00.0000,      69.184768,  9.379623515866163E+00, -1.707593979241645E+00, -3.380860413388491E-01,  1.120996534322417E-03,  6.361318003773467E-03, -1.930568023351546E-04,
2471430.500000000, A.D. 2054-Jun-12 00:00:00.0000,      69.184641,  9.385297990282586E+00, -1.675860480538176E+00, -3.390620307973516E-01,  1.148361614894489E-03,  6.331784147812281E-03, -1.972783221722972E-04,
2471435.500000000, A.D. 2054-Jun-17 00:00:00.0000,      69.184508,  9.391102828444486E+00, -1.644278942513541E+00, -3.400582226555655E-01,  1.173145040744545E-03,  6.300566987847167E-03, -2.011388083344869E-04,
2471440.500000000, A.D. 2054-Jun-22 00:00:00.0000,      69.184371,  9.397025177412443E+00, -1.612857297863903E+00, -3.410728286562470E-01,  1.195370609388894E-03,  6.267857307075824E-03, -2.046451337054140E-04,
2471445.500000000, A.D. 2054-Jun-27 00:00:00.0000,      69.184231,  9.403052325370828E+00, -1.581602561366077E+00, -3.421040964989404E-01,  1.215070836499376E-03,  6.233831863926760E-03, -2.078049298163173E-04,
2471450.500000000, A.D. 2054-Jul-02 00:00:00.0000,      69.184091,  9.409171742538454E+00, -1.550520900855306E+00, -3.431503138788664E-01,  1.232285376109309E-03,  6.198653004773259E-03, -2.106263379727816E-04,
2471455.500000000, A.D. 2054-Jul-07 00:00:00.0000,      69.183951,  9.415371112139349E+00, -1.519617704772241E+00, -3.442098106899711E-01,  1.247059684665812E-03,  6.162469770936618E-03, -2.131181581006261E-04,
2471460.500000000, A.D. 2054-Jul-12 00:00:00.0000,      69.183811,  9.421638353830504E+00, -1.488897647927926E+00, -3.452809608608017E-01,  1.259442767738420E-03,  6.125419019160797E-03, -2.152892445220705E-04,
2471465.500000000, A.D. 2054-Jul-17 00:00:00.0000,      69.183671,  9.427961640494066E+00, -1.458364752001487E+00, -3.463621834967241E-01,  1.269486407855570E-03,  6.087625435684592E-03, -2.171485988934852E-04,
2471470.500000000, A.D. 2054-Jul-22 00:00:00.0000,      69.183532,  9.434329408293859E+00, -1.428022441004995E+00, -3.474519425346269E-01,  1.277244192816655E-03,  6.049203092631943E-03, -2.187053052324520E-04,
2471475.500000000, A.D. 2054-Jul-27 00:00:00.0000,      69.183397,  9.440730362525176E+00, -1.397873594630775E+00, -3.485487467889946E-01,  1.282770114582266E-03,  6.010256151259281E-03, -2.199682050862869E-04,
2471480.500000000, A.D. 2054-Aug-01 00:00:00.0000,      69.183267,  9.447153479514606E+00, -1.367920595595241E+00, -3.496511493692430E-01,  1.286118187373818E-03,  5.970879333686330E-03, -2.209460111181373E-04,
2471485.500000000, A.D. 2054-Aug-06 00:00:00.0000,      69.183144,  9.453588004099414E+00, -1.338165373099941E+00, -3.507577459936352E-01,  1.287341962082567E-03,  5.931159192806806E-03, -2.216472294656188E-04,
2471490.500000000, A.D. 2054-Aug-11 00:00:00.0000,      69.183025,  9.460023445396246E+00, -1.308609443702454E+00, -3.518671741377254E-01,  1.286493503264025E-03,  5.891174701510403E-03, -2.220799664973126E-04,
2471495.500000000, A.D. 2054-Aug-16 00:00:00.0000,      69.182912,  9.466449569805979E+00, -1.279253946737425E+00, -3.529781113715347E-01,  1.283623421484145E-03,  5.850997743721245E-03, -2.222520991395780E-04,
2471500.500000000, A.D. 2054-Aug-21 00:00:00.0000,      69.182806,  9.472856391822747E+00, -1.250099676708659E+00, -3.540892732740664E-01,  1.278780503340223E-03,  5.810694329986635E-03, -2.221710805551278E-04,
2471505.500000000, A.D. 2054-Aug-26 00:00:00.0000,      69.182709,  9.479234164064893E+00, -1.221147113107122E+00, -3.551994119692344E-01,  1.272011093280559E-03,  5.770324892116879E-03, -2.218439558916930E-04,
2471510.500000000, A.D. 2054-Aug-31 00:00:00.0000,      69.182623,  9.485573365729779E+00, -1.192396445490795E+00, -3.563073140355358E-01,  1.263359339290132E-03,  5.729944852992655E-03, -2.212774803969090E-04,
2471515.500000000, A.D. 2054-Sep-05 00:00:00.0000,      69.182548,  9.491864689927008E+00, -1.163847596160550E+00, -3.574117982763364E-01,  1.252866875081527E-03,  5.689605701072986E-03, -2.204778831602623E-04,
2471520.500000000, A.D. 2054-Sep-10 00:00:00.0000,      69.182482,  9.498099031417121E+00, -1.135500240748212E+00, -3.585117141081553E-01,  1.240572547977028E-03,  5.649355020928355E-03, -2.194510471103892E-04,
2471525.500000000, A.D. 2054-Sep-15 00:00:00.0000,      69.182425,  9.504267473125786E+00, -1.107353824614851E+00, -3.596059393370603E-01,  1.226512711853410E-03,  5.609237117354205E-03, -2.182025217252008E-04,
2471530.500000000, A.D. 2054-Sep-20 00:00:00.0000,      69.182379,  9.510361272418706E+00, -1.079407578103595E+00, -3.606933781963658E-01,  1.210721016951567E-03,  5.569293869341419E-03, -2.167373385452578E-04,
2471535.500000000, A.D. 2054-Sep-25 00:00:00.0000,      69.182346,  9.516371847984070E+00, -1.051660529133417E+00, -3.617729595198267E-01,  1.193228141936946E-03,  5.529564604345909E-03, -2.150602372123753E-04,
2471540.500000000, A.D. 2054-Sep-30 00:00:00.0000,      69.182326,  9.522290765802653E+00, -1.024111512769681E+00, -3.628436347129033E-01,  1.174062331552188E-03,  5.490086917965581E-03, -2.131755921232207E-04,
2471545.500000000, A.D. 2054-Oct-05 00:00:00.0000,      69.182320,  9.528109725705754E+00, -9.967591796814154E-01, -3.639043759975906E-01,  1.153249066390452E-03,  5.450897219537090E-03, -2.110873108099203E-04,
